[
  {
    "name": "STARLINK-36722",
    "noradId": "67917",
    "line1": "1 67917U 26036P   26179.89873970  .00014507  00000+0  53542-3 0  9991",
    "line2": "2 67917  43.0014 336.8934 0001567 270.0566  90.0106 15.27595853 20733"
  },
  {
    "name": "STARLINK-36341",
    "noradId": "67918",
    "line1": "1 67918U 26036Q   26179.82323001  .00022948  00000+0  84035-3 0  9999",
    "line2": "2 67918  43.0050 338.0798 0001752 274.6104  85.4548 15.27599090 20713"
  },
  {
    "name": "STARLINK-36663",
    "noradId": "67919",
    "line1": "1 67919U 26036R   26179.89488251  .00013667  00000+0  50505-3 0  9999",
    "line2": "2 67919  43.0028 336.8710 0002320 262.6941  97.3647 15.27592963 20733"
  },
  {
    "name": "STARLINK-36375",
    "noradId": "67920",
    "line1": "1 67920U 26036S   26179.81682046  .00020143  00000+0  73960-3 0  9998",
    "line2": "2 67920  43.0020 338.0176 0001403 271.4286  88.6405 15.27575129 20716"
  },
  {
    "name": "STARLINK-36405",
    "noradId": "67921",
    "line1": "1 67921U 26036T   26179.87833139  .00025092  00000+0  91765-3 0  9997",
    "line2": "2 67921  43.0021 337.6296 0001370 274.1003  85.9692 15.27601896 20726"
  },
  {
    "name": "STARLINK-36406",
    "noradId": "67923",
    "line1": "1 67923U 26036V   26179.93600797  .00013512  00000+0  49937-3 0  9996",
    "line2": "2 67923  43.0001 337.2060 0001012 260.0415 100.0322 15.27596861 20730"
  },
  {
    "name": "STARLINK-36714",
    "noradId": "67924",
    "line1": "1 67924U 26036W   26179.86676862  .00027263  00000+0  99620-3 0  9997",
    "line2": "2 67924  43.0010 337.5263 0001703 275.1561  84.9096 15.27591757 20721"
  },
  {
    "name": "STARLINK-36726",
    "noradId": "67925",
    "line1": "1 67925U 26036X   26179.79495636  .00022133  00000+0  81116-3 0  9990",
    "line2": "2 67925  43.0045 337.8605 0001446 272.0889  87.9797 15.27590252 20715"
  },
  {
    "name": "STARLINK-36758",
    "noradId": "67926",
    "line1": "1 67926U 26036Y   26179.85648510  .00024128  00000+0  88305-3 0  9992",
    "line2": "2 67926  43.0016 337.4495 0001700 279.2960  80.7700 15.27594806 20724"
  },
  {
    "name": "STARLINK-36728",
    "noradId": "67927",
    "line1": "1 67927U 26036Z   26179.91416290  .00015003  00000+0  55352-3 0  9996",
    "line2": "2 67927  43.0007 337.0119 0001072 271.6595  88.4134 15.27586071 20738"
  },
  {
    "name": "STARLINK-36771",
    "noradId": "67928",
    "line1": "1 67928U 26036AA  26180.50649876  .00020200  00000+0  74140-3 0  9993",
    "line2": "2 67928  43.0029 333.7227 0001495 263.3528  96.7153 15.27587455 20829"
  },
  {
    "name": "STARLINK-36809",
    "noradId": "67929",
    "line1": "1 67929U 26036AB  26179.84492135  .00021625  00000+0  79257-3 0  9999",
    "line2": "2 67929  42.9989 337.3588 0001882 275.1037  84.9599 15.27599101 20722"
  },
  {
    "name": "STARLINK-36865",
    "noradId": "67930",
    "line1": "1 67930U 26036AC  26179.83464289  .00015463  00000+0  57040-3 0  9998",
    "line2": "2 67930  43.0026 337.2708 0001810 267.7432  92.3212 15.27572010 20723"
  },
  {
    "name": "STARLINK-36781",
    "noradId": "67931",
    "line1": "1 67931U 26036AD  26179.83849230  .00015189  00000+0  55989-3 0  9997",
    "line2": "2 67931  43.0028 337.3032 0001933 278.9335  81.1298 15.27605299 20725"
  },
  {
    "name": "STARLINK-36301",
    "noradId": "67932",
    "line1": "1 67932U 26037A   26179.70181471  .00021547  00000+0  78973-3 0  9994",
    "line2": "2 67932  43.0012 284.2115 0001726 269.3262  90.7391 15.27601547 20311"
  },
  {
    "name": "STARLINK-36852",
    "noradId": "67933",
    "line1": "1 67933U 26037B   26179.76334876  .00018483  00000+0  67908-3 0  9991",
    "line2": "2 67933  42.9977 283.8345 0001397 246.5551 113.5154 15.27599284 20328"
  },
  {
    "name": "STARLINK-36861",
    "noradId": "67934",
    "line1": "1 67934U 26037C   26179.69410386  .00024576  00000+0  89880-3 0  9998",
    "line2": "2 67934  43.0009 284.1578 0001857 275.1423  84.9216 15.27609283 20316"
  },
  {
    "name": "STARLINK-36860",
    "noradId": "67935",
    "line1": "1 67935U 26037D   26179.69026504  .00024130  00000+0  88327-3 0  9995",
    "line2": "2 67935  43.0027 284.1390 0001790 269.0961  90.9686 15.27589139 20319"
  },
  {
    "name": "STARLINK-36848",
    "noradId": "67936",
    "line1": "1 67936U 26037E   26178.70175434  .00018656  00000+0  68536-3 0  9990",
    "line2": "2 67936  43.0069 289.6233 0001476 302.5690  57.5019 15.27599019 20165"
  },
  {
    "name": "STARLINK-36370",
    "noradId": "67937",
    "line1": "1 67937U 26037F   26179.62101761  .00023864  00000+0  87346-3 0  9992",
    "line2": "2 67937  43.0047 284.4797 0001391 267.8010  92.2683 15.27597543 20304"
  },
  {
    "name": "STARLINK-36371",
    "noradId": "67938",
    "line1": "1 67938U 26037G   26179.74535812  .00012343  00000+0  45713-3 0  9996",
    "line2": "2 67938  43.0033 283.6843 0001941 267.5507  92.5122 15.27593462 20321"
  },
  {
    "name": "STARLINK-36246",
    "noradId": "67939",
    "line1": "1 67939U 26037H   26179.74150738  .00022842  00000+0  83640-3 0  9993",
    "line2": "2 67939  43.0014 283.6669 0001356 283.0431  77.0269 15.27603479 20326"
  },
  {
    "name": "STARLINK-36907",
    "noradId": "67940",
    "line1": "1 67940U 26037J   26179.66069308  .00011378  00000+0  42211-3 0  9999",
    "line2": "2 67940  43.0023 283.8966 0001096 295.4465  64.6273 15.27599607 20318"
  },
  {
    "name": "STARLINK-36927",
    "noradId": "67941",
    "line1": "1 67941U 26037K   26179.65427411  .00014734  00000+0  54339-3 0  9995",
    "line2": "2 67941  43.0013 283.8506 0001892 267.9563  92.1072 15.27608827 20313"
  },
  {
    "name": "STARLINK-36914",
    "noradId": "67942",
    "line1": "1 67942U 26037L   26179.01839532  .00025246  00000+0  92349-3 0  9990",
    "line2": "2 67942  43.0024 287.6729 0001443 276.5472  83.5215 15.27591281 20219"
  },
  {
    "name": "STARLINK-36851",
    "noradId": "67943",
    "line1": "1 67943U 26037M   26179.72993488  .00016013  00000+0  58953-3 0  9995",
    "line2": "2 67943  43.0007 283.5606 0001460 287.0211  73.0480 15.27614853 20328"
  },
  {
    "name": "STARLINK-36892",
    "noradId": "67944",
    "line1": "1 67944U 26037N   26179.72351068  .00016008  00000+0  58939-3 0  9996",
    "line2": "2 67944  43.0010 283.5068 0001333 301.9851  58.0871 15.27613198 20328"
  },
  {
    "name": "STARLINK-36908",
    "noradId": "67945",
    "line1": "1 67945U 26037P   26179.71579441  .00022858  00000+0  83651-3 0  9992",
    "line2": "2 67945  43.0060 283.4477 0003399 292.8121  67.2371 15.27618899 20329"
  },
  {
    "name": "STARLINK-36909",
    "noradId": "67946",
    "line1": "1 67946U 26037Q   26179.97350731  .00021837  00000+0  80106-3 0  9998",
    "line2": "2 67946  43.0015 281.9305 0001347 271.1241  88.9457 15.27565220 20365"
  },
  {
    "name": "STARLINK-36920",
    "noradId": "67947",
    "line1": "1 67947U 26037R   26179.70809233  .00024482  00000+0  89571-3 0  9990",
    "line2": "2 67947  43.0009 283.3946 0001453 270.8762  89.1923 15.27598211 20321"
  }
]