OBJECT_NAME,OBJECT_ID,EPOCH,MEAN_MOTION,ECCENTRICITY,INCLINATION,RA_OF_ASC_NODE,ARG_OF_PERICENTER,MEAN_ANOMALY,EPHEMERIS_TYPE,CLASSIFICATION_TYPE,NORAD_CAT_ID,ELEMENT_SET_NO,REV_AT_EPOCH,BSTAR,MEAN_MOTION_DOT,MEAN_MOTION_DDOT
STARLINK-36722,2026-036P,2026-06-28T21:34:11.110080,15.27595853,.00015678,43.0014,336.8934,270.0566,90.0106,0,U,67917,999,2073,.53541501E-3,.14507E-3,0
STARLINK-36341,2026-036Q,2026-06-28T19:45:27.072864,15.27599090,.00017526,43.0050,338.0798,274.6104,85.4548,0,U,67918,999,2071,.84035363E-3,.22948E-3,0
STARLINK-36663,2026-036R,2026-06-28T21:28:37.848864,15.27592963,.00023207,43.0028,336.8710,262.6941,97.3647,0,U,67919,999,2073,.50504567E-3,.13667E-3,0
STARLINK-36375,2026-036S,2026-06-28T19:36:13.287744,15.27575129,.00014034,43.0020,338.0176,271.4286,88.6405,0,U,67920,999,2071,.73959805E-3,.20143E-3,0
STARLINK-36405,2026-036T,2026-06-28T21:04:47.832096,15.27601896,.00013704,43.0021,337.6296,274.1003,85.9692,0,U,67921,999,2072,.91764686E-3,.25092E-3,0
STARLINK-36406,2026-036V,2026-06-28T22:27:51.088608,15.27596861,.00010125,43.0001,337.2060,260.0415,100.0322,0,U,67923,999,2073,.499375E-3,.13512E-3,0
STARLINK-36714,2026-036W,2026-06-28T20:48:08.808768,15.27591757,.00017038,43.0010,337.5263,275.1561,84.9096,0,U,67924,999,2072,.99620248E-3,.27263E-3,0
STARLINK-36726,2026-036X,2026-06-28T19:04:44.229504,15.27590252,.00014463,43.0045,337.8605,272.0889,87.9797,0,U,67925,999,2071,.81115644E-3,.22133E-3,0
STARLINK-36758,2026-036Y,2026-06-28T20:33:20.312640,15.27594806,.00017005,43.0016,337.4495,279.2960,80.7700,0,U,67926,999,2072,.88304523E-3,.24128E-3,0
STARLINK-36728,2026-036Z,2026-06-28T21:56:23.674560,15.27586071,.00010728,43.0007,337.0119,271.6595,88.4134,0,U,67927,999,2073,.55351847E-3,.15003E-3,0
STARLINK-36771,2026-036AA,2026-06-29T12:09:21.492864,15.27587455,.0001495,43.0029,333.7227,263.3528,96.7153,0,U,67928,999,2082,.7414E-3,.202E-3,0
STARLINK-36809,2026-036AB,2026-06-28T20:16:41.204640,15.27599101,.0001882,42.9989,337.3588,275.1037,84.9599,0,U,67929,999,2072,.7925682E-3,.21625E-3,0
STARLINK-36865,2026-036AC,2026-06-28T20:01:53.145696,15.27572010,.00018105,43.0026,337.2708,267.7432,92.3212,0,U,67930,999,2072,.57040065E-3,.15463E-3,0
STARLINK-36781,2026-036AD,2026-06-28T20:07:25.734720,15.27605299,.00019338,43.0028,337.3032,278.9335,81.1298,0,U,67931,999,2072,.55988979E-3,.15189E-3,0
STARLINK-36301,2026-037A,2026-06-28T16:50:36.790944,15.27601547,.00017262,43.0012,284.2115,269.3262,90.7391,0,U,67932,999,2031,.78972797E-3,.21547E-3,0
STARLINK-36852,2026-037B,2026-06-28T18:19:13.332864,15.27599284,.00013974,42.9977,283.8345,246.5551,113.5154,0,U,67933,999,2032,.67908037E-3,.18483E-3,0
STARLINK-36861,2026-037C,2026-06-28T16:39:30.573504,15.27609283,.00018577,43.0009,284.1578,275.1423,84.9216,0,U,67934,999,2031,.89880437E-3,.24576E-3,0
STARLINK-36860,2026-037D,2026-06-28T16:33:58.899456,15.27589139,.00017908,43.0027,284.1390,269.0961,90.9686,0,U,67935,999,2031,.88326964E-3,.2413E-3,0
STARLINK-36848,2026-037E,2026-06-27T16:50:31.574976,15.27599019,.0001476,43.0069,289.6233,302.5690,57.5019,0,U,67936,999,2016,.6853636E-3,.18656E-3,0
STARLINK-36370,2026-037F,2026-06-28T14:54:15.921504,15.27597543,.0001391,43.0047,284.4797,267.8010,92.2683,0,U,67937,999,2030,.87345804E-3,.23864E-3,0
STARLINK-36371,2026-037G,2026-06-28T17:53:18.941568,15.27593462,.00019413,43.0033,283.6843,267.5507,92.5122,0,U,67938,999,2032,.45713207E-3,.12343E-3,0
STARLINK-36246,2026-037H,2026-06-28T17:47:46.237632,15.27603479,.00013567,43.0014,283.6669,283.0431,77.0269,0,U,67939,999,2032,.83640452E-3,.22842E-3,0
STARLINK-36907,2026-037J,2026-06-28T15:51:23.882112,15.27599607,.0001096,43.0023,283.8966,295.4465,64.6273,0,U,67940,999,2031,.42210657E-3,.11378E-3,0
STARLINK-36927,2026-037K,2026-06-28T15:42:09.283104,15.27608827,.00018925,43.0013,283.8506,267.9563,92.1072,0,U,67941,999,2031,.543392E-3,.14734E-3,0
STARLINK-36914,2026-037L,2026-06-28T00:26:29.355648,15.27591281,.00014435,43.0024,287.6729,276.5472,83.5215,0,U,67942,999,2021,.92348851E-3,.25246E-3,0
STARLINK-36851,2026-037M,2026-06-28T17:31:06.373632,15.27614853,.00014605,43.0007,283.5606,287.0211,73.0480,0,U,67943,999,2032,.58953461E-3,.16013E-3,0
STARLINK-36892,2026-037N,2026-06-28T17:21:51.322752,15.27613198,.0001333,43.0010,283.5068,301.9851,58.0871,0,U,67944,999,2032,.5893851E-3,.16008E-3,0
STARLINK-36908,2026-037P,2026-06-28T17:10:44.637024,15.27618899,.00033994,43.0060,283.4477,292.8121,67.2371,0,U,67945,999,2032,.83651021E-3,.22858E-3,0
STARLINK-36909,2026-037Q,2026-06-28T23:21:51.031584,15.27565220,.00013471,43.0015,281.9305,271.1241,88.9457,0,U,67946,999,2036,.80105945E-3,.21837E-3,0
STARLINK-36920,2026-037R,2026-06-28T16:59:39.177312,15.27598211,.00014537,43.0009,283.3946,270.8762,89.1923,0,U,67947,999,2032,.89571355E-3,.24482E-3,0
